HAWK-A                  
1 43765U 18099H   26193.67931597  .00004140  00000+0  16642-3 0  9990
2 43765  97.3903 245.5853 0034451 192.8190 167.2175 15.24944360416982
HAWK-B                  
1 43794U 18099AN  26194.12562476  .00003736  00000+0  15939-3 0  9997
2 43794  97.3951 245.3861 0031175 209.4603 150.4878 15.23101586416986
HAWK-C                  
1 43799U 18099AT  26193.72865411  .00005004  00000+0  17915-3 0  9998
2 43799  97.3881 246.6730 0040040 192.5496 167.4750 15.28466075417817
HAWK-2C                 
1 47502U 21006CT  26194.16572607  .00004014  00000+0  12052-3 0  9994
2 47502  97.2268 237.9600 0008628 106.6131 253.6060 15.34973140303480
HAWK-2A                 
1 47505U 21006CW  26194.16797016  .00003988  00000+0  11972-3 0  9999
2 47505  97.2311 238.6553 0008146 109.8797 250.3325 15.34987922303486
HAWK-2B                 
1 47508U 21006CZ  26194.03129617  .00004954  00000+0  14753-3 0  9998
2 47508  97.2180 236.8123 0008679 108.6598 251.5589 15.35117562303462
HAWK-3B                 
1 48931U 21059BE  26193.55364624  .00032206  00000+0  25051-3 0  9996
2 48931  97.6638  32.7011 0004238 208.8876 151.2152 15.71695978281833
HAWK-3C                 
1 48948U 21059BX  26193.55333511  .00035057  00000+0  27246-3 0  9990
2 48948  97.6757  38.4300 0004501 208.2392 151.8627 15.71698478281838
HAWK-3A                 
1 48957U 21059CG  26193.93522471  .00037729  00000+0  29267-3 0  9990
2 48957  97.6702  36.0341 0004409 210.6539 149.4466 15.71730090281891
HAWK-5C                 
1 52754U 22057Y   26194.28807797  .00011605  00000+0  19264-3 0  9996
2 52754  97.6607 355.6598 0003011 354.4378   5.6840 15.52281591230399
HAWK-5B                 
1 52756U 22057AA  26194.28789075  .00011615  00000+0  19281-3 0  9996
2 52756  97.6622 354.0126 0003658 340.2436  19.8674 15.52279090230396
HAWK-5A                 
1 52757U 22057AB  26194.28769527  .00011848  00000+0  19663-3 0  9999
2 52757  97.6616 354.8429 0003527 345.9829  14.1325 15.52280149230395
HAWK-6B                 
1 55324U 23011A   26194.21490436  .00002478  00000+0  11087-3 0  9997
2 55324  40.4967 200.2343 0003910 230.1473 129.8993 15.23142556191813
HAWK-6C                 
1 55326U 23011C   26194.21427601  .00002609  00000+0  11631-3 0  9994
2 55326  40.4959 197.0735 0004414 222.1450 137.9020 15.23144916191824
HAWK-6A                 
1 55327U 23011D   26194.21431231  .00002616  00000+0  11660-3 0  9999
2 55327  40.4967 198.7004 0003938 219.5688 140.4834 15.23144014191825
HAWK-7A                 
1 56191U 23054P   26194.24846033  .00003258  00000+0  12335-3 0  9992
2 56191  97.2672  80.9236 0001623 344.3845  15.7344 15.27620219181007
